[{"OBJECT_NAME":"TIANQIN 1 (CAS-6)","OBJECT_ID":"2019-093A","EPOCH":"2026-03-09T23:25:50.916864","MEAN_MOTION":14.94890933,"ECCENTRICITY":0.00118256,"INCLINATION":97.7823,"RA_OF_ASC_NODE":153.5687,"ARG_OF_PERICENTER":31.664,"MEAN_ANOMALY":328.5289,"EPHEMERIS_TYPE":0,"CLASSIFICATION_TYPE":"U","NORAD_CAT_ID":44879,"ELEMENT_SET_NO":999,"REV_AT_EPOCH":33722,"BSTAR":0.00035534384,"MEAN_MOTION_DOT":3.822e-5,"MEAN_MOTION_DDOT":0},{"OBJECT_NAME":"STARLINK-32913","OBJECT_ID":"2025-037X","EPOCH":"2026-03-09T21:21:27.156096","MEAN_MOTION":14.98330525,"ECCENTRICITY":0.0002619,"INCLINATION":70.0039,"RA_OF_ASC_NODE":353.8791,"ARG_OF_PERICENTER":266.0186,"MEAN_ANOMALY":94.0674,"EPHEMERIS_TYPE":0,"CLASSIFICATION_TYPE":"U","NORAD_CAT_ID":63098,"ELEMENT_SET_NO":999,"REV_AT_EPOCH":5864,"BSTAR":0.00067472314,"MEAN_MOTION_DOT":7.967e-5,"MEAN_MOTION_DDOT":0}]
